CCSDS_OEM_VERS = 2.0  
CREATION_DATE  = 2026-01-20T09:16:45
ORIGINATOR     = ESOC/OPS-GFA                            
 
 



META_START
OBJECT_NAME          = LISA                                    
OBJECT_ID            = -1000                                   
CENTER_NAME          = SUN                     
REF_FRAME            = EME2000 
TIME_SYSTEM          = TCB
START_TIME           = 2036-12-09T00:00:29.327664            
STOP_TIME            = 2047-09-09T13:05:22.587857            
INTERPOLATION        = HERMITE                                 
INTERPOLATION_DEGREE = 7                                       
META_STOP

2045-09-15T04:27:08.757536     1.31646688872416645e+08   -6.56034193244352639e+07   -2.84747661710227132e+07    1.43334368082247963e+01    2.38386758538429859e+01    1.06029048765215350e+01   -5.19539923913244434e-06    2.58918344224921657e-06    1.12381439468912447e-06
2045-09-28T16:59:36.274298     1.44717201288948536e+08   -3.62432342989443243e+07   -1.54348845889718123e+07    7.94405168284433216e+00    2.61939011768645003e+01    1.16183230403054516e+01   -5.69248650955799757e-06    1.42573526668462326e-06    6.07170667994475113e-07
2045-10-12T06:01:37.242361     1.50054188011739969e+08   -4.89651800632866845e+06   -1.54819385294774361e+06    1.14074124756515793e+00    2.71438807019553039e+01    1.20104912735409588e+01   -5.88373934377273649e-06    1.92043687273480441e-07    6.07159580916562233e-08
2045-10-25T16:55:32.320800     1.47414733806524396e+08    2.65080342329456024e+07    1.23312358862208966e+07   -5.65871070853573599e+00    2.66502683203845869e+01    1.17641671458461765e+01   -5.76373723126954921e-06   -1.03642075730173744e-06   -4.82147377759084802e-07
2045-11-08T02:47:07.443297     1.37066164296663284e+08    5.64263346182496771e+07    2.55215452135379314e+07   -1.21230360132833130e+01    2.47660342133935067e+01    1.09041406590476555e+01   -5.34621298764965685e-06   -2.20089014205809629e-06   -9.95482885902977886e-07
2045-11-21T13:25:29.403088     1.19520196638616502e+08    8.34636509483572096e+07    3.74079387204586864e+07   -1.79552422548981738e+01    2.15866029364883047e+01    9.47384078970736354e+00   -4.65322149022695782e-06   -3.24941664314624287e-06   -1.45639873939994410e-06
2045-12-05T01:05:35.628802     9.56388047001176476e+07    1.06200474804908097e+08    4.73661105491803885e+07   -2.28540214434383167e+01    1.72685925748868421e+01    7.54379285665210020e+00   -3.71902626115348805e-06   -4.12958410607164032e-06   -1.84184008899067198e-06
2045-12-18T13:55:16.881833     6.66188890479651317e+07    1.23405229109823376e+08    5.48562740045360550e+07   -2.65585634639607520e+01    1.20267650811986755e+01    5.21007307393875507e+00   -2.58935625074018826e-06   -4.79625337290068230e-06   -2.13204409427983613e-06
2046-01-01T03:20:21.945480     3.40122674763219580e+07    1.34092981170605406e+08    5.94491988087150156e+07   -2.88600652809626368e+01    6.13797104304328744e+00    2.59598713856261964e+00   -1.32242990015988983e-06   -5.21307042072501358e-06   -2.31118056306103540e-06
2046-01-14T16:44:37.391928    -3.99680716790802777e+05    1.37657468595115840e+08    6.08840774980957732e+07   -2.96292694090929487e+01   -8.05462761316624309e-02   -1.57622676271861106e-01    1.54046915573369743e-08   -5.35708681706073381e-06   -2.36936901929841615e-06
2046-01-28T03:45:15.377483    -3.45417322330580354e+07    1.33956750711787969e+08    5.91066766474306807e+07   -2.88345083285783268e+01   -6.25820860374808863e+00   -2.88672186536958453e+00    1.34634417365649963e-06   -5.22187431460862761e-06   -2.30408411193676270e-06
2046-02-10T13:47:07.367205    -6.67770414042325318e+07    1.23268501098568156e+08    5.42465512379192412e+07   -2.65324488461952299e+01   -1.21022899128064125e+01   -5.46207217192580785e+00    2.60883426552734536e-06   -4.81613732054634239e-06   -2.11942931069647433e-06
2046-02-24T00:15:10.018634    -9.55564342080950588e+07    1.06108453125423566e+08    4.65381875939480737e+07   -2.28297409771610376e+01   -1.73338821343844351e+01   -7.76075326922036624e+00    3.74347950916273613e-06   -4.15704484182882227e-06   -1.82324238729456131e-06
2046-03-09T11:23:17.224352    -1.19355342010647967e+08    8.33190241637017727e+07    3.63604626282817721e+07   -1.79031915744926451e+01   -2.16759032300771111e+01   -9.66093849921292858e+00    4.69018852183511834e-06   -3.27422999737846639e-06   -1.42887509983296879e-06
2046-03-23T00:08:26.488235    -1.36904562660345852e+08    5.59741229209645167e+07    2.41935922759191766e+07   -1.19804216231785592e+01   -2.48949604337061601e+01   -1.10603345990280122e+01    5.39727153959744047e-06   -2.20679218815744249e-06   -9.53835864675369387e-07
2046-04-05T14:18:33.185929    -1.47136790166319191e+08    2.54907502982177176e+07    1.06687108378012907e+07   -5.36518477877647104e+00   -2.67919235826215747e+01   -1.18721173326442830e+01    5.81949493723642181e-06   -1.00826566823899471e-06   -4.21989306244774211e-07
2046-04-19T02:54:12.889346    -1.49390418967211157e+08   -6.22119179873553663e+06   -3.36670863952830993e+06    1.52890350320840174e+00   -2.72396209107613068e+01   -1.20417420768985739e+01    5.92659350901137417e-06    2.46758882493277778e-07    1.33548520098146852e-07
2046-05-02T14:18:48.928631    -1.43623710563386202e+08   -3.74850988324727640e+07   -1.71709328579389229e+07    8.33571826605573385e+00   -2.62240246436269189e+01   -1.15645123179599683e+01    5.71305823855068821e-06    1.49104524175511070e-06    6.83015986226560702e-07
2046-05-16T01:13:48.120119    -1.30174122134929404e+08   -6.66940330617990792e+07   -3.00346044227631427e+07    1.47018152827710740e+01   -2.38014981176789036e+01   -1.04668144071156100e+01    5.18932036626315195e-06    2.65868649968352372e-06    1.19730408190574317e-06
2046-05-29T12:20:19.406248    -1.09729686600758433e+08   -9.23397328767479360e+07   -4.12934558936728239e+07    2.02936842390856143e+01   -2.00944126962575886e+01   -8.80414749070226321e+00    4.38113584106230792e-06    3.68678551911185122e-06    1.64870235652413494e-06
2046-06-11T23:50:10.240034    -8.33500371288807094e+07   -1.13041022519803062e+08   -5.03409593874893412e+07    2.48051093581666038e+01   -1.52954347077086084e+01   -6.66298724719564284e+00    3.33073838230478473e-06    4.51718793458834166e-06    2.01166258589538017e-06
2046-06-25T12:24:12.945109    -5.23659788353248090e+07   -1.27680905679006934e+08   -5.66885494394769073e+07    2.79883831714690103e+01   -9.64922051738851039e+00   -4.15256563769372899e+00    2.09282198156944215e-06    5.10274529246668026e-06    2.26555491304898073e-06
2046-07-09T01:56:44.879880    -1.84336849830948412e+07   -1.35398488453364819e+08   -5.99622754713673443e+07    2.96537056321572692e+01   -3.46165331349571748e+00   -1.40895695877516314e+00    7.36254730629812034e-07    5.40761481695951307e-06    2.39481032745397431e-06
2046-07-22T13:34:44.020845     1.63013524340510741e+07   -1.35743101533659875e+08   -5.99716445188724846e+07    2.97037571466762493e+01    2.87130383037850923e+00    1.39230383206694075e+00   -6.50090927588971172e-07    5.41392293680674312e-06    2.39188957459582331e-06
2046-08-04T23:43:53.330327     5.00084153892569765e+07   -1.28820340632255390e+08   -5.67709028484578058e+07    2.81651221063718999e+01    9.01165055317178343e+00    4.10182843243424600e+00   -1.99040891937881165e-06    5.12750621593302101e-06    2.25968540389912614e-06
2046-08-18T10:47:12.245009     8.11326935932078511e+07   -1.14984129021924153e+08   -5.05229969989596605e+07    2.51203097610766157e+01    1.46732615872967393e+01    6.59340204647978467e+00   -3.22099513081083930e-06    4.56515392314478395e-06    2.00588635441299588e-06
2046-08-31T22:33:10.264715     1.07973747260864809e+08   -9.49505949003464282e+07   -4.15516766984767467e+07    2.07319608412474352e+01    1.95457955258990239e+01    8.73043219970298168e+00   -4.27397825593610828e-06    3.75871138913479029e-06    1.64486024943402501e-06
2046-09-14T10:19:50.177712     1.29035879721428141e+08   -6.98320902749836743e+07   -3.03550953085024878e+07    1.52486599341223368e+01    2.33588571267498040e+01    1.03943488907930632e+01   -5.09143259946672390e-06    2.75562094270564354e-06    1.19782760799467320e-06
2046-09-27T22:46:28.760494     1.43233569033081681e+08   -4.09234993556068614e+07   -1.75104497417369224e+07    8.95693479891629707e+00    2.59189337528484245e+01    1.15007423584296635e+01   -5.63320438964375547e-06    1.60967582924724522e-06    6.88746593859768404e-07
2046-10-11T12:18:12.170513     1.49789430065068752e+08   -9.72208727229518071e+06   -3.68317980361685902e+06    2.18472558545733708e+00    2.70900518324079016e+01    1.19908233200274186e+01   -5.87235029808300902e-06    3.81322906085299589e-07    1.44464171082631453e-07
2046-10-24T23:36:48.977020     1.48353684123232692e+08    2.17874204304090366e+07    1.02474351515330467e+07   -4.63761903951055832e+00    2.68144999785896658e+01    1.18408399683655006e+01   -5.79927028143197641e-06   -8.51545710748273380e-07   -4.00528508034214719e-07
2046-11-07T09:29:01.622984     1.39153840808615893e+08    5.20188248924987689e+07    2.35807616666624844e+07   -1.11694125317662269e+01    2.51381647989634125e+01    1.10724916550119694e+01   -5.42621333043852642e-06   -2.02834159554338638e-06   -9.19484939289778595e-07
2046-11-20T19:59:18.179227     1.22660510485913530e+08    7.95897514455278516e+07    3.57073184442864060e+07   -1.71161068116432489e+01    2.21492449773337867e+01    9.72600221443894597e+00   -4.77379158750196275e-06   -3.09746447346650273e-06   -1.38966507664826624e-06
2046-12-04T07:40:52.600564     9.96649312108376324e+07    1.03080791585258752e+08    4.60025674582131132e+07   -2.21763582907722352e+01    1.79918401516068833e+01    7.86635075723869548e+00   -3.87376874392728581e-06   -4.00648350954993941e-06   -1.78801007341257692e-06
